# From MPC106342
C/1995 O1 (Hale-Bopp),e,89.1415,283.0398,130.4498,177.7120,0.0004160,0.99496412,0.0000,03/29.7324/1997,2000,g -2.0,4.0
# From MPC 27287
C/1996 B2 (Hyakutake),e,125.6307,186.7858,129.3903,1524,0.0000166,0.99985075,0.0000,04/20.1924/1996,2000,g 10.0,4.0
# From NK 1615
P/1996 R2 (Lagerkvist),e,2.6007,40.0140,333.3467,3.774897,0.1343836,0.31437712,139.0646,12/13.0/2021,2000,g 11.5,4.0
# From MPC 30063
P/1997 B1 (Kobayashi),e,12.3394,328.8819,183.3209,8.581532,0.0392064,0.76039500,355.8552,12/13.0/2021,2000,g 15.0,2.0
# From MPC 75703
P/1998 VS24 (LINEAR),e,5.0265,159.0385,244.6049,4.527172,0.1023207,0.24261784,145.7393,12/13.0/2021,2000,g 13.0,2.0
# From NK 731
P/1999 RO28 (LONEOS),e,7.5671,137.8844,231.2692,3.426664,0.1553806,0.67237616,139.9251,12/13.0/2021,2000,g 20.0,2.0
# From MPC 75704
P/1999 XN120 (Catalina),e,5.0297,285.2961,161.7717,4.178933,0.1153735,0.21025618,190.1344,12/13.0/2021,2000,g 13.5,2.0
# From NK 744
P/2000 R2 (LINEAR),e,11.6871,160.2856,176.5608,3.467104,0.1526700,0.53158860,138.8307,12/13.0/2021,2000,g 18.0,4.0
# From MPC 43019
P/2001 H5 (NEAT),e,8.3671,328.6843,224.8147,6.097162,0.0654655,0.59827344,147.2405,12/13.0/2021,2000,g 12.0,4.0
# From MPC 75704
P/2001 Q6 (NEAT),e,56.9109,22.1729,42.9298,7.955213,0.0439265,0.82311797,324.5247,12/13.0/2021,2000,g 13.5,4.0
# From MPC 47727
P/2002 EJ57 (LINEAR),e,4.9764,330.3228,167.3324,6.467763,0.0599202,0.59230652,76.3582,12/13.0/2021,2000,g 12.5,4.0
# From MPEC 2021-W31
C/2002 O4 (Hoenig),h,09/30.3324/2002,73.1861,322.0457,105.4053,1.000255,0.761893,2000,9.5,4.0
# From MPC109588
P/2002 T6 (NEAT-LINEAR),e,10.8420,206.1729,219.6600,7.698187,0.0461447,0.56125337,316.1001,12/13.0/2021,2000,g 10.5,4.0
# From MPC 75007
C/2002 VQ94 (LINEAR),e,70.6438,35.0904,100.0754,184.6168,0.0003929,0.96304206,2.2782,12/13.0/2021,2000,g  9.5,2.0
# From MPC 50354
P/2003 F2 (NEAT),e,11.6078,359.0130,192.1981,6.502199,0.0594448,0.54198499,45.2576,12/13.0/2021,2000,g 16.5,2.0
# From MPC 50139
P/2003 QX29 (NEAT),e,11.3909,264.5479,37.5642,8.023060,0.0433705,0.47288970,302.2391,12/13.0/2021,2000,g  8.5,4.0
# From MPC105235
P/2003 T12 (SOHO),e,11.0213,174.5815,219.7479,2.585801,0.2370344,0.76990283,138.6690,12/13.0/2021,2000,g 17.0,4.0
# From MPC 82312
P/2004 A1 (LONEOS),e,10.5517,124.8523,21.2052,7.965015,0.0438454,0.30946555,278.2673,12/13.0/2021,2000,g  6.5,4.0
# From MPC 54558
P/2004 DO29 (Spacewatch-LINEAR),e,14.5323,147.3724,40.6108,7.288916,0.0500852,0.44110398,314.7058,12/13.0/2021,2000,g 13.5,2.0
# From MPC 54823
P/2004 FY140 (LINEAR),e,2.1348,326.7673,242.3028,4.904728,0.0907364,0.16800598,212.0607,12/13.0/2021,2000,g 12.5,2.0
# From MPC 53304
P/2004 R3 (LINEAR-NEAT),e,12.7880,305.4058,37.8735,4.779004,0.0943405,0.25776214,7.7045,12/13.0/2021,2000,g 14.5,4.0
# From MPC 55521
P/2004 V3 (Siding Spring),e,50.4432,356.1282,322.4056,7.136659,0.0516966,0.44622672,323.3200,12/13.0/2021,2000,g 11.5,4.0
# From MPC 75705
P/2004 V5 (LINEAR-Hill),e,19.3402,47.7904,87.6437,7.982987,0.0436974,0.44387493,269.4154,12/13.0/2021,2000,g  8.0,4.0
# From MPC 54164
P/2005 E1 (Tubbiolo),e,4.2637,335.5690,193.9885,7.043980,0.0527202,0.37522231,325.4628,12/13.0/2021,2000,g 10.0,4.0
# From MPC 54823
P/2005 GF8 (LONEOS),e,1.1860,314.6093,284.5754,5.811246,0.0703559,0.51707082,56.8441,12/13.0/2021,2000,g 11.5,4.0
# From MPC 79019
P/2005 J1 (McNaught),e,31.7531,268.8200,338.9563,3.571006,0.1460556,0.56935912,169.1054,12/13.0/2021,2000,g 16.5,4.0
# From MPC 74246
P/2005 L1 (McNaught),e,7.7385,138.2483,149.7497,3.977879,0.1242301,0.20997905,4.9876,12/13.0/2021,2000,g  9.5,4.0
# From MPC 75706
P/2005 S2 (Skiff),e,3.1357,161.2181,229.2314,8.011471,0.0434646,0.19790455,247.3983,12/13.0/2021,2000,g  7.5,4.0
# From MPC 75706
P/2005 SB216 (LONEOS),e,24.0981,1.1567,83.3197,7.136743,0.0516957,0.46405555,282.6567,12/13.0/2021,2000,g 12.0,2.0
# From MPEC 2021-W47
P/2005 T2 (Christensen),e,8.2890,260.1568,58.9246,3.846479,0.1306499,0.41584571,80.5616,12/13.0/2021,2000,g 14.5,4.0
# From MPC 73461
P/2005 T3 (Read),e,6.2236,27.6998,6.7278,7.585291,0.0471787,0.17482509,279.4437,12/13.0/2021,2000,g  9.0,4.0
# From MPC 73461
P/2005 T4 (SWAN),e,160.2379,25.8277,41.7354,9.360933,0.0344132,0.92970918,203.5579,12/13.0/2021,2000,g 15.0,4.0
# From MPC 75706
P/2005 T5 (Broughton),e,21.3686,56.9996,304.6141,7.286482,0.0501103,0.55252536,295.9016,12/13.0/2021,2000,g 11.0,4.0
# From MPC 75706
P/2005 Y2 (McNaught),e,19.0458,94.3004,193.8084,6.362305,0.0614161,0.46935307,25.8232,12/13.0/2021,2000,g  9.0,4.0
# From MPC 56954
P/2006 F4 (Spacewatch),e,12.4393,183.8234,30.7860,3.517672,0.1493898,0.34103242,128.9956,12/13.0/2021,2000,g 15.0,4.0
# From MPC 75707
P/2006 HR30 (Siding Spring),e,31.8377,309.8835,117.3124,7.810586,0.0451522,0.84261700,247.4127,12/13.0/2021,2000,g 11.0,4.0
# From MPC 75707
P/2007 A2 (Christensen),e,26.4874,300.9101,186.7127,6.331734,0.0618614,0.55799885,338.2794,12/13.0/2021,2000,g 13.5,4.0
# From MPC 75707
P/2007 C2 (Catalina),e,8.6215,275.4216,180.1122,6.993598,0.0532909,0.47143346,276.7184,12/13.0/2021,2000,g 10.0,4.0
# From MPC 84315
C/2007 D1 (LINEAR),e,41.5017,171.2282,339.9287,1304,0.0000209,0.99324540,0.0000,06/07.5582/2007,2000,g  3.5,4.0
# From MPC 82314
P/2007 K2 (Gibbs),e,7.6292,188.6379,347.4049,7.269163,0.0502895,0.68296041,267.2569,12/13.0/2021,2000,g 14.0,4.0
# From MPC 60925
P/2007 Q2 (Gilmore),e,10.2026,172.1564,162.8033,5.654293,0.0733055,0.67012481,27.9300,12/13.0/2021,2000,g 16.0,4.0
# From MPC 73462
P/2007 S1 (Zhao),e,5.9641,141.3701,245.4176,3.820897,0.1319642,0.33972566,320.5972,12/13.0/2021,2000,g 13.0,4.0
# From MPC 61994
P/2007 T2 (Kowalski),e,9.7513,3.3762,359.6465,3.046498,0.1853544,0.78555722,229.4057,12/13.0/2021,2000,g 18.5,4.0
# From MPC 75709
P/2008 L2 (Hill),e,25.8666,218.0138,141.2438,6.027555,0.0666028,0.61332292,325.7619,12/13.0/2021,2000,g 12.5,4.0
# From MPC 64114
P/2008 O3 (Boattini),e,32.2979,47.5755,341.1243,8.218905,0.0418295,0.69588987,206.9645,12/13.0/2021,2000,g 13.0,4.0
# From MPEC 2021-X81
P/2008 WZ96 (LINEAR),e,7.1144,56.4186,341.9871,3.487131,0.1513567,0.46943206,16.4852,12/13.0/2021,2000,g 17.2,4.0
# From MPC 75710
P/2008 Y3 (McNaught),e,38.7719,262.8225,238.1372,8.047561,0.0431725,0.44550443,204.7293,12/13.0/2021,2000,g  8.5,4.0
# From MPC 75710
P/2009 B1 (Boattini),e,22.2249,297.0843,128.8780,6.737437,0.0563588,0.63515398,266.3543,12/13.0/2021,2000,g 13.0,4.0
# From MPC 66466
C/2009 G1 (STEREO),e,108.6682,120.4757,175.4613,450.1129,0.0001032,0.99747061,0.0000,04/16.8815/2009,2000,g  9.0,4.0
# From MPC 75710
P/2009 O3 (Hill),e,16.2824,183.6917,154.4529,7.768030,0.0455237,0.68787204,208.7024,12/13.0/2021,2000,g 12.5,4.0
# From MPC 68902
P/2009 Q5 (McNaught),e,40.9887,160.2801,209.0522,7.433492,0.0486312,0.60944390,217.7950,12/13.0/2021,2000,g 10.0,4.0
# From MPC112389
P/2009 T2 (La Sagra),e,27.5829,215.8551,216.3523,7.721587,0.0459351,0.76577858,200.6515,12/13.0/2021,2000,g 14.0,4.0
# From MPC105235
P/2009 WX51 (Catalina),e,9.5935,31.6301,118.1755,3.082142,0.1821483,0.74001459,71.3510,12/13.0/2021,2000,g 19.0,2.0
# From MPC 74247
P/2009 Y2 (Kowalski),e,29.9441,262.0304,172.1339,6.550211,0.0587924,0.63631017,253.2136,12/13.0/2021,2000,g 13.0,4.0
# From MPC 75711
P/2010 A3 (Hill),e,14.8250,63.7555,42.2057,6.081349,0.0657210,0.73358728,282.0997,12/13.0/2021,2000,g 14.0,4.0
# From MPC 75008
P/2010 C1 (Scotti),e,9.1282,141.8864,3.5606,7.103960,0.0520539,0.25924974,229.9731,12/13.0/2021,2000,g  9.5,4.0
# From MPC 75008
P/2010 D2 (WISE),e,57.0888,319.8887,119.9922,6.718537,0.0565968,0.45117948,244.7563,12/13.0/2021,2000,g 16.0,4.0
# From MPC 75009
P/2010 E2 (Jarnac),e,15.3888,177.8215,8.3428,8.639855,0.0388101,0.71960965,165.9919,12/13.0/2021,2000,g 14.0,4.0
# From MPC 72851
P/2010 H2 (Vales),e,14.2756,64.1920,128.0545,3.833039,0.1313376,0.19609226,204.4750,12/13.0/2021,2000,g  6.0,4.0
# From MPC 70361
P/2010 H3 (SOHO),e,23.0643,77.0847,26.1608,3.037049,0.1862200,0.98535608,0.0000,02/07.9396/2021,2000,g 20.0,2.0
# From MPC 73463
P/2010 H4 (Scotti),e,2.3180,44.7328,179.4670,6.595000,0.0581945,0.26666450,244.4125,12/13.0/2021,2000,g 10.5,4.0
# From MPC 74637
P/2010 H5 (Scotti),e,14.0598,24.7996,175.0274,7.165845,0.0513811,0.15278716,219.7606,12/13.0/2021,2000,g 13.0,2.0
# From MPC 98558
P/2010 J3 (McMillan),e,13.2791,106.4353,157.5989,8.975996,0.0366505,0.72638813,151.1671,12/13.0/2021,2000,g 11.0,4.0
# From MPC 84315
P/2010 JC81 (WISE),e,38.7848,30.8571,12.4239,8.107965,0.0426910,0.77739789,165.9995,12/13.0/2021,2000,g  9.0,4.0
# From MPC 74248
P/2010 T2 (PANSTARRS),e,7.8893,58.7428,353.1027,5.543743,0.0755091,0.32195365,297.4689,12/13.0/2021,2000,g 11.5,4.0
# From MPC 98558
P/2010 TO20 (LINEAR-Grauer),e,2.4788,43.2902,267.0611,5.831738,0.0699853,0.05533597,335.8590,12/13.0/2021,2000,g  9.0,4.0
# From MPC 82316
P/2010 U1 (Boattini),e,8.2167,280.6966,86.0688,6.506572,0.0593849,0.24879800,257.4453,12/13.0/2021,2000,g  9.5,4.0
# From MPEC 2021-R75
C/2010 U3 (Boattini),e,55.5386,43.0084,88.0429,2409,0.0000083,0.99649466,0.0000,02/25.2229/2019,2000,g  1.0,4.0
# From MPC 79021
P/2010 UH55 (Spacewatch),e,8.0397,232.9263,225.1571,6.653846,0.0574242,0.56342617,224.0968,12/13.0/2021,2000,g 11.0,4.0
# From MPC 75009
P/2010 WK (LINEAR),e,11.4015,11.3313,40.9664,5.761975,0.0712602,0.69019883,292.1820,12/13.0/2021,2000,g 14.5,2.0
# From MPC 84021
P/2011 C2 (Gibbs),e,10.8855,12.1231,160.7624,7.413236,0.0488306,0.26891457,177.7567,12/13.0/2021,2000,g  9.0,4.0
# From MPC 79866
P/2011 FR143 (Lemmon),e,15.9775,190.9501,350.0347,6.860772,0.0548460,0.45051273,216.3507,12/13.0/2021,2000,g 14.0,2.0
# From MPC 82317
P/2011 JB15 (Spacewatch-Boattini),e,19.1477,153.5801,111.0730,7.360652,0.0493548,0.31696343,178.3471,12/13.0/2021,2000,g  9.0,4.0
# From MPC 87913
P/2011 N1 (ASH),e,35.7406,77.5864,330.3485,6.247332,0.0631193,0.54445676,220.5311,12/13.0/2021,2000,g 11.5,4.0
# From MPC 75714
P/2011 NO1 (Elenin),e,15.2466,295.8142,263.7533,5.527268,0.0758470,0.77454673,302.0430,12/13.0/2021,2000,g 15.0,4.0
# From MPC 82318
